[{"OBJECT_NAME":"STARLINK-31082","OBJECT_ID":"2023-200T","EPOCH":"2025-10-12T07:10:12.146016","MEAN_MOTION":15.02556383,"ECCENTRICITY":0.00012997,"INCLINATION":43.0036,"RA_OF_ASC_NODE":256.4651,"ARG_OF_PERICENTER":273.3,"MEAN_ANOMALY":86.7693,"EPHEMERIS_TYPE":0,"CLASSIFICATION_TYPE":"U","NORAD_CAT_ID":58606,"ELEMENT_SET_NO":999,"REV_AT_EPOCH":10127,"BSTAR":0.00027349756,"MEAN_MOTION_DOT":3.495e-5,"MEAN_MOTION_DDOT":0},{"OBJECT_NAME":"STARLINK-31069","OBJECT_ID":"2023-200U","EPOCH":"2025-10-12T07:00:38.136384","MEAN_MOTION":15.02539428,"ECCENTRICITY":9.728e-5,"INCLINATION":43.0047,"RA_OF_ASC_NODE":256.4148,"ARG_OF_PERICENTER":269.681,"MEAN_ANOMALY":90.3921,"EPHEMERIS_TYPE":0,"CLASSIFICATION_TYPE":"U","NORAD_CAT_ID":58607,"ELEMENT_SET_NO":999,"REV_AT_EPOCH":10127,"BSTAR":5.032103e-5,"MEAN_MOTION_DOT":4.76e-6,"MEAN_MOTION_DDOT":0},{"OBJECT_NAME":"STARLINK-31067","OBJECT_ID":"2023-200V","EPOCH":"2025-10-12T06:55:50.790720","MEAN_MOTION":15.02536692,"ECCENTRICITY":0.00013816,"INCLINATION":43.0045,"RA_OF_ASC_NODE":256.3885,"ARG_OF_PERICENTER":279.55,"MEAN_ANOMALY":80.5186,"EPHEMERIS_TYPE":0,"CLASSIFICATION_TYPE":"U","NORAD_CAT_ID":58608,"ELEMENT_SET_NO":999,"REV_AT_EPOCH":10127,"BSTAR":7.1831976e-5,"MEAN_MOTION_DOT":7.67e-6,"MEAN_MOTION_DDOT":0},{"OBJECT_NAME":"STARLINK-31085","OBJECT_ID":"2023-200W","EPOCH":"2025-10-12T06:51:03.734496","MEAN_MOTION":15.02520875,"ECCENTRICITY":9.45e-5,"INCLINATION":43.003,"RA_OF_ASC_NODE":256.3649,"ARG_OF_PERICENTER":278.3511,"MEAN_ANOMALY":81.7225,"EPHEMERIS_TYPE":0,"CLASSIFICATION_TYPE":"U","NORAD_CAT_ID":58609,"ELEMENT_SET_NO":999,"REV_AT_EPOCH":10127,"BSTAR":1.2278076e-5,"MEAN_MOTION_DOT":-3.8e-7,"MEAN_MOTION_DDOT":0},{"OBJECT_NAME":"STARLINK-31089","OBJECT_ID":"2023-200X","EPOCH":"2025-10-12T05:01:05.680992","MEAN_MOTION":15.0254292,"ECCENTRICITY":9.926e-5,"INCLINATION":43.0032,"RA_OF_ASC_NODE":257.4516,"ARG_OF_PERICENTER":265.2192,"MEAN_ANOMALY":94.8537,"EPHEMERIS_TYPE":0,"CLASSIFICATION_TYPE":"U","NORAD_CAT_ID":58610,"ELEMENT_SET_NO":999,"REV_AT_EPOCH":10125,"BSTAR":0.00013557352,"MEAN_MOTION_DOT":1.629e-5,"MEAN_MOTION_DDOT":0},{"OBJECT_NAME":"STARLINK-31061","OBJECT_ID":"2023-200Y","EPOCH":"2025-10-12T06:46:15.339072","MEAN_MOTION":15.02551921,"ECCENTRICITY":0.00013452,"INCLINATION":43.0061,"RA_OF_ASC_NODE":256.3414,"ARG_OF_PERICENTER":258.9511,"MEAN_ANOMALY":101.1181,"EPHEMERIS_TYPE":0,"CLASSIFICATION_TYPE":"U","NORAD_CAT_ID":58611,"ELEMENT_SET_NO":999,"REV_AT_EPOCH":10127,"BSTAR":9.681282e-6,"MEAN_MOTION_DOT":-7.3e-7,"MEAN_MOTION_DDOT":0},{"OBJECT_NAME":"STARLINK-31054","OBJECT_ID":"2023-203B","EPOCH":"2025-10-12T02:12:27.302688","MEAN_MOTION":15.27575279,"ECCENTRICITY":0.00019647,"INCLINATION":43.0047,"RA_OF_ASC_NODE":186.4378,"ARG_OF_PERICENTER":269.5957,"MEAN_ANOMALY":90.467,"EPHEMERIS_TYPE":0,"CLASSIFICATION_TYPE":"U","NORAD_CAT_ID":58619,"ELEMENT_SET_NO":999,"REV_AT_EPOCH":10083,"BSTAR":-2.0855402e-5,"MEAN_MOTION_DOT":-8.36e-6,"MEAN_MOTION_DDOT":0},{"OBJECT_NAME":"STARLINK-31134","OBJECT_ID":"2023-203D","EPOCH":"2025-10-12T02:43:53.568480","MEAN_MOTION":15.27600495,"ECCENTRICITY":8.358e-5,"INCLINATION":42.9972,"RA_OF_ASC_NODE":186.6049,"ARG_OF_PERICENTER":296.6245,"MEAN_ANOMALY":63.4521,"EPHEMERIS_TYPE":0,"CLASSIFICATION_TYPE":"U","NORAD_CAT_ID":58621,"ELEMENT_SET_NO":999,"REV_AT_EPOCH":10083,"BSTAR":-8.942984e-5,"MEAN_MOTION_DOT":-2.723e-5,"MEAN_MOTION_DDOT":0},{"OBJECT_NAME":"STARLINK-31133","OBJECT_ID":"2023-203E","EPOCH":"2025-10-12T02:06:53.482464","MEAN_MOTION":15.27592007,"ECCENTRICITY":0.00017855,"INCLINATION":43.0017,"RA_OF_ASC_NODE":186.4073,"ARG_OF_PERICENTER":271.014,"MEAN_ANOMALY":89.0507,"EPHEMERIS_TYPE":0,"CLASSIFICATION_TYPE":"U","NORAD_CAT_ID":58622,"ELEMENT_SET_NO":999,"REV_AT_EPOCH":10083,"BSTAR":0.00011729621,"MEAN_MOTION_DOT":2.968e-5,"MEAN_MOTION_DDOT":0},{"OBJECT_NAME":"STARLINK-31068","OBJECT_ID":"2023-203F","EPOCH":"2025-10-12T02:01:21.055872","MEAN_MOTION":15.27581129,"ECCENTRICITY":0.00011035,"INCLINATION":43.002,"RA_OF_ASC_NODE":186.3742,"ARG_OF_PERICENTER":273.3707,"MEAN_ANOMALY":86.7018,"EPHEMERIS_TYPE":0,"CLASSIFICATION_TYPE":"U","NORAD_CAT_ID":58623,"ELEMENT_SET_NO":999,"REV_AT_EPOCH":10083,"BSTAR":3.861054e-5,"MEAN_MOTION_DOT":8.01e-6,"MEAN_MOTION_DDOT":0},{"OBJECT_NAME":"STARLINK-31129","OBJECT_ID":"2023-203G","EPOCH":"2025-10-12T03:31:46.838496","MEAN_MOTION":15.27596643,"ECCENTRICITY":0.000269,"INCLINATION":43.0001,"RA_OF_ASC_NODE":185.9867,"ARG_OF_PERICENTER":274.8613,"MEAN_ANOMALY":85.1931,"EPHEMERIS_TYPE":0,"CLASSIFICATION_TYPE":"U","NORAD_CAT_ID":58624,"ELEMENT_SET_NO":999,"REV_AT_EPOCH":10084,"BSTAR":2.3405052e-5,"MEAN_MOTION_DOT":3.82e-6,"MEAN_MOTION_DDOT":0},{"OBJECT_NAME":"STARLINK-30774","OBJECT_ID":"2023-203H","EPOCH":"2025-10-12T01:52:05.589408","MEAN_MOTION":15.27581323,"ECCENTRICITY":0.0001435,"INCLINATION":42.9989,"RA_OF_ASC_NODE":186.3257,"ARG_OF_PERICENTER":281.3749,"MEAN_ANOMALY":78.6941,"EPHEMERIS_TYPE":0,"CLASSIFICATION_TYPE":"U","NORAD_CAT_ID":58625,"ELEMENT_SET_NO":999,"REV_AT_EPOCH":10083,"BSTAR":0.0002607031,"MEAN_MOTION_DOT":6.919e-5,"MEAN_MOTION_DDOT":0},{"OBJECT_NAME":"STARLINK-31086","OBJECT_ID":"2023-203J","EPOCH":"2025-10-12T02:49:15.297024","MEAN_MOTION":15.27587183,"ECCENTRICITY":7.361e-5,"INCLINATION":43.0016,"RA_OF_ASC_NODE":185.7729,"ARG_OF_PERICENTER":257.5141,"MEAN_ANOMALY":102.5628,"EPHEMERIS_TYPE":0,"CLASSIFICATION_TYPE":"U","NORAD_CAT_ID":58626,"ELEMENT_SET_NO":999,"REV_AT_EPOCH":10084,"BSTAR":-3.5567382e-5,"MEAN_MOTION_DOT":-1.241e-5,"MEAN_MOTION_DDOT":0},{"OBJECT_NAME":"STARLINK-31065","OBJECT_ID":"2023-203K","EPOCH":"2025-10-12T01:31:44.795424","MEAN_MOTION":15.27586097,"ECCENTRICITY":0.00018523,"INCLINATION":43.0028,"RA_OF_ASC_NODE":186.2383,"ARG_OF_PERICENTER":280.1274,"MEAN_ANOMALY":79.9369,"EPHEMERIS_TYPE":0,"CLASSIFICATION_TYPE":"U","NORAD_CAT_ID":58627,"ELEMENT_SET_NO":999,"REV_AT_EPOCH":10083,"BSTAR":0.0001075335,"MEAN_MOTION_DOT":2.698e-5,"MEAN_MOTION_DDOT":0},{"OBJECT_NAME":"STARLINK-31092","OBJECT_ID":"2023-203L","EPOCH":"2025-10-12T01:46:33.123072","MEAN_MOTION":15.27580205,"ECCENTRICITY":0.00012967,"INCLINATION":43.0008,"RA_OF_ASC_NODE":186.3,"ARG_OF_PERICENTER":308.6486,"MEAN_ANOMALY":51.425,"EPHEMERIS_TYPE":0,"CLASSIFICATION_TYPE":"U","NORAD_CAT_ID":58628,"ELEMENT_SET_NO":999,"REV_AT_EPOCH":10083,"BSTAR":-1.5777354e-5,"MEAN_MOTION_DOT":-6.96e-6,"MEAN_MOTION_DDOT":0},{"OBJECT_NAME":"STARLINK-31091","OBJECT_ID":"2023-203M","EPOCH":"2025-10-12T00:18:40.074048","MEAN_MOTION":15.2587839,"ECCENTRICITY":0.00019927,"INCLINATION":43.0022,"RA_OF_ASC_NODE":190.154,"ARG_OF_PERICENTER":283.449,"MEAN_ANOMALY":76.6138,"EPHEMERIS_TYPE":0,"CLASSIFICATION_TYPE":"U","NORAD_CAT_ID":58629,"ELEMENT_SET_NO":999,"REV_AT_EPOCH":10078,"BSTAR":0.00024184005,"MEAN_MOTION_DOT":6.068e-5,"MEAN_MOTION_DDOT":0}]
