58606,STARLINK-31082,2023,95.84,-1.0,+,43.0,Active,0,LEO,USA,USA,Unknown,Unknown,Unknown,1 58606U 23200T   25285.29875169  .00003495  00000+0  27350-3 0  9991,2 58606  43.0036 256.4651 0001299 273.3000  86.7693 15.02556383101276,15.02556383,0.0001299,LEO
58607,STARLINK-31069,2023,95.84,-1.0,+,43.0,Active,0,LEO,USA,USA,Unknown,Unknown,Unknown,1 58607U 23200U   25285.29210806  .00000476  00000+0  50321-4 0  9994,2 58607  43.0047 256.4148 0000972 269.6810  90.3921 15.02539428101270,15.02539428,9.72e-05,LEO
58608,STARLINK-31067,2023,95.84,-1.0,+,43.0,Active,0,LEO,USA,USA,Unknown,Unknown,Unknown,1 58608U 23200V   25285.28878230  .00000767  00000+0  71832-4 0  9998,2 58608  43.0045 256.3885 0001381 279.5500  80.5186 15.02536692101271,15.02536692,0.0001381,LEO
58609,STARLINK-31085,2023,95.84,-1.0,+,43.0,Active,0,LEO,USA,USA,Unknown,Unknown,Unknown,1 58609U 23200W   25285.28545989 -.00000038  00000+0  12278-4 0  9992,2 58609  43.0030 256.3649 0000945 278.3511  81.7225 15.02520875101271,15.02520875,9.45e-05,LEO
58610,STARLINK-31089,2023,95.84,-1.0,+,43.0,Active,0,LEO,USA,USA,Unknown,Unknown,Unknown,1 58610U 23200X   25285.20909353  .00001629  00000+0  13557-3 0  9991,2 58610  43.0032 257.4516 0000992 265.2192  94.8537 15.02542920101256,15.0254292,9.92e-05,LEO
58611,STARLINK-31061,2023,95.84,-1.0,+,43.0,Active,0,LEO,USA,USA,Unknown,Unknown,Unknown,1 58611U 23200Y   25285.28212198 -.00000073  00000+0  96813-5 0  9995,2 58611  43.0061 256.3414 0001345 258.9511 101.1181 15.02551921101271,15.02551921,0.0001345,LEO
58619,STARLINK-31054,2023,94.27,-1.0,+,43.0,Active,0,LEO,USA,USA,Unknown,Unknown,Unknown,1 58619U 23203B   25285.09198267 -.00000836  00000+0 -20855-4 0  9995,2 58619  43.0047 186.4378 0001964 269.5957  90.4670 15.27575279100837,15.27575279,0.0001964,LEO
58621,STARLINK-31134,2023,94.27,-1.0,+,43.0,Active,0,LEO,USA,USA,Unknown,Unknown,Unknown,1 58621U 23203D   25285.11381445 -.00002723  00000+0 -89430-4 0  9994,2 58621  42.9972 186.6049 0000835 296.6245  63.4521 15.27600495100833,15.27600495,8.35e-05,LEO
58622,STARLINK-31133,2023,94.27,-1.0,+,43.0,Active,0,LEO,USA,USA,Unknown,Unknown,Unknown,1 58622U 23203E   25285.08811901  .00002968  00000+0  11730-3 0  9992,2 58622  43.0017 186.4073 0001785 271.0140  89.0507 15.27592007100834,15.27592007,0.0001785,LEO
58623,STARLINK-31068,2023,94.27,-1.0,+,43.0,Active,0,LEO,USA,USA,Unknown,Unknown,Unknown,1 58623U 23203F   25285.08427148  .00000801  00000+0  38611-4 0  9991,2 58623  43.0020 186.3742 0001103 273.3707  86.7018 15.27581129100833,15.27581129,0.0001103,LEO
58624,STARLINK-31129,2023,94.27,-1.0,+,43.0,Active,0,LEO,USA,USA,Unknown,Unknown,Unknown,1 58624U 23203G   25285.14706989  .00000382  00000+0  23405-4 0  9991,2 58624  43.0001 185.9867 0002690 274.8613  85.1931 15.27596643100845,15.27596643,0.000269,LEO
58625,STARLINK-30774,2023,94.27,-1.0,+,43.0,Active,0,LEO,USA,USA,Unknown,Unknown,Unknown,1 58625U 23203H   25285.07784247  .00006919  00000+0  26070-3 0  9999,2 58625  42.9989 186.3257 0001435 281.3749  78.6941 15.27581323100832,15.27581323,0.0001435,LEO
58626,STARLINK-31086,2023,94.27,-1.0,+,43.0,Active,0,LEO,USA,USA,Unknown,Unknown,Unknown,1 58626U 23203J   25285.11753816 -.00001241  00000+0 -35567-4 0  9990,2 58626  43.0016 185.7729 0000736 257.5141 102.5628 15.27587183100847,15.27587183,7.36e-05,LEO
58627,STARLINK-31065,2023,94.27,-1.0,+,43.0,Active,0,LEO,USA,USA,Unknown,Unknown,Unknown,1 58627U 23203K   25285.06371291  .00002698  00000+0  10753-3 0  9992,2 58627  43.0028 186.2383 0001852 280.1274  79.9369 15.27586097100833,15.27586097,0.0001852,LEO
58628,STARLINK-31092,2023,94.27,-1.0,+,43.0,Active,0,LEO,USA,USA,Unknown,Unknown,Unknown,1 58628U 23203L   25285.07399448 -.00000696  00000+0 -15777-4 0  9998,2 58628  43.0008 186.3000 0001296 308.6486  51.4250 15.27580205100831,15.27580205,0.0001296,LEO
58629,STARLINK-31091,2023,94.37,-1.0,+,43.0,Active,0,LEO,USA,USA,Unknown,Unknown,Unknown,1 58629U 23203M   25285.01296382  .00006068  00000+0  24184-3 0  9994,2 58629  43.0022 190.1540 0001992 283.4490  76.6138 15.25878390100789,15.2587839,0.0001992,LEO
